format  = 'OEF2.0'       ! file format
rectype = 'ML'           ! record type (1L/ML)
refsys  = ECLM J2000     ! default reference system
END_OF_HEADER
test
! Equinoctial elements: a, e*sin(LP), e*cos(LP), tan(i/2)*sin(LN), tan(i/2)*cos(LN), mean long.
 EQU   1.8350289749332322E+00  -0.037148670266741   0.071023092813111   -0.137357053988774    0.088435090940627 311.6365285512039
 MJD     58320.876016603 TDT
 MAG  -9.990  0.150
! Non-grav parameters: model used, actual number in use, dimension
 LSP   0  0    6
! RMS    7.25990E-04   1.47746E-04   1.66457E-04   1.16779E-04   9.85252E-05   2.52918E-02
! EIG   3.81480E-07   5.04205E-07   3.85596E-06   1.56859E-05   3.48952E-04   8.20226E-04
! WEA   0.86469   0.06577   0.18068  -0.14095   0.11914   0.42577
 COV   5.270614306719873E-07  1.698528496871238E-08  9.345605087396282E-08
 COV  -8.433872622167568E-08  7.106598241697075E-08  1.179303306817409E-05
 COV   2.182895359634926E-08  1.821012446755405E-08 -4.212344771375029E-09
 COV   3.758999322545366E-09  3.201988189260774E-06  2.770795515742292E-08
 COV  -1.593939024371823E-08  1.358302748091662E-08  4.127752147687889E-06
 COV   1.363737257872941E-08 -1.150418186569668E-08 -2.079039931902234E-06
 COV   9.707212352474725E-09  1.779828425404067E-06  6.396758183152136E-04
 NOR   1.889744707987114E+10  2.041965796136362E+11  1.886565117124377E+11
 NOR   1.127611552380404E+10 -5.353755275937690E+08 -2.549766863450342E+09
 NOR   2.626208087254421E+12  2.553524932053465E+12  2.908240572368348E+11
 NOR   4.248858427978931E+11 -3.362498749013349E+10  2.522059587912106E+12
 NOR   3.204747493492805E+11  5.207265747583929E+11 -3.294192087677344E+10
 NOR   1.616862534603817E+12  2.027683936029338E+12 -4.118403091686506E+09
 NOR   2.673909635476951E+12 -6.326736722673821E+09  4.321119477301992E+08
!MOID  0.68456    0
!NODES  0.68882  0.97614
